INTELSAT 902 (IS-902)   
1 26900U 01039A   26178.15466244 -.00000278  00000+0  00000+0 0  9992
2 26900   6.1414  71.6622 0004200  24.6956 184.4844  1.00271329 90790
INTELSAT 904 (IS-904)   
1 27380U 02007A   26178.17095506 -.00000221  00000+0  00000+0 0  9990
2 27380   6.9444  69.0666 0006526  11.3406 224.9345  1.00273021 51861
DIRECTV 5 (TEMPO 1)     
1 27426U 02023A   26178.21412856 -.00000050  00000+0  00000+0 0  9995
2 27426   4.9029  75.1896 0003549  24.8448 142.2764  1.00271623 88222
INTELSAT 905 (IS-905)   
1 27438U 02027A   26178.26265427  .00000099  00000+0  00000+0 0  9999
2 27438   6.7782  69.6805 0004154  26.8273 136.2136  1.00272236 51463
GALAXY 3C (G-3C)        
1 27445U 02030A   26178.29156153 -.00000145  00000+0  00000+0 0  9992
2 27445   3.7583  77.8491 0001988  25.5796 182.1006  1.00272410 46595
INTELSAT 906 (IS-906)   
1 27513U 02041A   26177.82086038  .00000019  00000+0  00000+0 0  9991
2 27513   5.8263  72.8033 0004205   7.3513 194.4364  1.00272159 87123
GALAXY 13 (HORIZONS-1)  
1 27954U 03044A   26178.29280814  .00000143  00000+0  00000+0 0  9992
2 27954   1.4447  83.7366 0001713   4.4004 142.6660  1.00269901 46672
INTELSAT 10-02          
1 28358U 04022A   26178.16445582  .00000000  00000+0  00000+0 0  9991
2 28358   0.0268 287.5242 0000178 181.8453 224.1091  1.00270753 80653
DIRECTV 8               
1 28659U 05019A   26178.21239523  .00000013  00000+0  00000+0 0  9998
2 28659   0.0225  69.9345 0003304  29.8497 132.9535  1.00271752 77171
GALAXY 28 (G-28)        
1 28702U 05022A   26178.19971309 -.00000192  00000+0  00000+0 0  9992
2 28702   3.3235  78.8111 0002274  17.0371 224.2616  1.00270977 52077
GALAXY 16 (G-16)        
1 29236U 06023A   26178.21629524 -.00000115  00000+0  00000+0 0  9994
2 29236   0.0432 123.6596 0002887 321.3815 169.1442  1.00272109 73079
DIRECTV 9S              
1 29494U 06043A   26178.21594858 -.00000104  00000+0  00000+0 0  9991
2 29494   2.4462  80.7914 0005423  18.9721 152.1058  1.00271904 51483
GALAXY 17 (G-17)        
1 31307U 07016B   26178.19003038 -.00000197  00000+0  00000+0 0  9992
2 31307   2.9969  79.7814 0004599  20.0086 158.9136  1.00271226 69908
INTELSAT 11 (IS-11)     
1 32253U 07044B   26178.18083590  .00000038  00000+0  00000+0 0  9997
2 32253   3.5910  78.5553 0003080  84.3941 259.3204  0.99047741 68547
HORIZONS-2              
1 32388U 07063B   26178.18447569 -.00000244  00000+0  00000+0 0  9997
2 32388   2.6274  80.5108 0004169   6.7343 180.6622  1.00271244 67911
DIRECTV 11              
1 32729U 08013A   26178.21629524 -.00000114  00000+0  00000+0 0  9995
2 32729   0.0117 254.5940 0000361 224.4814 134.9314  1.00269961 45691
GALAXY 18 (G-18)        
1 32951U 08024A   26178.21161522  .00000000  00000+0  00000+0 0  9996
2 32951   0.0260  21.2817 0003257  78.7918 128.4376  1.00269996 45954
GALAXY 19 (G-19)        
1 33376U 08045A   26178.21672858 -.00000127  00000+0  00000+0 0  9991
2 33376   0.0422 260.8302 0002929 203.8842 151.6369  1.00271296 65002
FM-5                    
1 35493U 09034A   26178.19003038 -.00000188  00000+0  00000+0 0  9994
2 35493   0.0266 288.2610 0000829  58.7185 270.5709  1.00271055 46742
INTELSAT 14 (IS-14)     
1 36097U 09064A   26178.20183661 -.00000262  00000+0  00000+0 0  9994
2 36097   0.0164  23.6686 0002688  71.9109 207.4003  1.00272388 60700
INTELSAT 15 (IS-15)     
1 36106U 09067A   26178.11027068 -.00000173  00000+0  00000+0 0  9997
2 36106   0.0141  46.2513 0002544  54.0730 299.7482  1.00271495 41329
DIRECTV 12              
1 36131U 09075A   26178.21560191 -.00000092  00000+0  00000+0 0  9994
2 36131   0.0115 111.5028 0000435  21.3310 117.3856  1.00270719 46652
INTELSAT 16 (IS-16)     
1 36397U 10006A   26178.19003038 -.00000233  00000+0  00000+0 0  9990
2 36397   0.0135  38.6810 0002425  70.9486 157.8845  1.00272223 59755
XM-5                    
1 37185U 10053A   26178.21308856 -.00000012  00000+0  00000+0 0  9992
2 37185   0.0658 271.4228 0002542 281.0011  44.4199  1.00272508 57588
INTELSAT 17 (IS-17)     
1 37238U 10065B   26178.10645733  .00000010  00000+0  00000+0 0  9997
2 37238   0.0115  76.4921 0002351  19.9904 283.0606  1.00270844 53340
INTELSAT 28 (IS-28)     
1 37392U 11016A   26178.25618541 -.00000215  00000+0  00000+0 0  9996
2 37392   1.8318  82.5095 0004029  12.5609 240.7929  1.00271497 53387
INTELSAT 18 (IS-18)     
1 37834U 11056A   26178.20035112  .00000065  00000+0  00000+0 0  9995
2 37834   0.0128 310.9419 0002100 149.7371  66.7571  1.00273269 53910
INTELSAT 22 (IS-22)     
1 38098U 12011A   26178.17892924  .00000000  00000+0  00000+0 0  9997
2 38098   0.0387  56.9895 0001782  72.9850 281.8416  1.00270723  7288
INTELSAT 19 (IS-19)     
1 38356U 12030A   26178.19757778 -.00000045  00000+0  00000+0 0  9994
2 38356   0.0163  20.8312 0003362  81.0314  50.5794  1.00271363 50552
INTELSAT 20 (IS-20)     
1 38740U 12043A   26178.17823589 -.00000011  00000+0  00000+0 0  9990
2 38740   0.0061  46.8790 0001069 137.8511 223.2248  1.00262160 50845
INTELSAT 21 (IS-21)     
1 38749U 12045A   26178.22449094 -.00000273  00000+0  00000+0 0  9992
2 38749   0.0263  70.6891 0001842  37.8837 189.5825  1.00271590 50622
